NORAD_CAT_ID,OBJECT_NAME,OBJECT_TYPE,EPOCH,MEAN_MOTION,ECCENTRICITY,INCLINATION,RA_OF_ASC_NODE,ARG_OF_PERICENTER,MEAN_ANOMALY,BSTAR,MEAN_MOTION_DOT,MEAN_MOTION_DDOT,TLE_LINE0,TLE_LINE1,TLE_LINE2,SEMIMAJOR_AXIS,PERIOD,APOGEE,PERIGEE,DECAYED
52673.0,STARLINK-3976,PAYLOAD,2022-12-29 16:16:43,15.08838086,0.0002931,53.2207,348.5571,26.2798,333.8343,-0.00012332,-2.251e-05,0.0,0 STARLINK-3976,1 52673U 22053T   22363.67828118 -.00002251  00000-0 -12332-3 0  9998,2 52673  53.2207 348.5571 0002931  26.2798 333.8343 15.08838086 34580,6917.886,95.438,541.779,537.724,0.0
52673.0,STARLINK-3976,PAYLOAD,2022-12-30 08:10:33,15.08844915,0.0002938,53.22,345.5835,30.9618,329.1547,0.0001483,2.073e-05,0.0,0 STARLINK-3976,1 52673U 22053T   22364.34067095  .00002073  00000-0  14830-3 0  9997,2 52673  53.2200 345.5835 0002938  30.9618 329.1547 15.08844915 34686,6917.865,95.437,541.763,537.698,0.0
52673.0,STARLINK-3976,PAYLOAD,2022-12-30 16:07:28,15.08853279,0.0002952,53.22,344.097,26.7456,333.3688,0.0003139,4.713e-05,0.0,0 STARLINK-3976,1 52673U 22053T   22364.67186136  .00004713  00000-0  31390-3 0  9994,2 52673  53.2200 344.0970 0002952  26.7456 333.3688 15.08853279 34731,6917.84,95.437,541.747,537.663,0.0
52673.0,STARLINK-3976,PAYLOAD,2022-12-31 04:50:34,15.08856411,0.0002841,53.2182,341.7171,27.6769,332.4374,0.00050645,7.785e-05,0.0,0 STARLINK-3976,1 52673U 22053T   22365.20178365  .00007785  00000-0  50645-3 0  9995,2 52673  53.2182 341.7171 0002841  27.6769 332.4374 15.08856411 34813,6917.83,95.437,541.661,537.73,0.0
52673.0,STARLINK-3976,PAYLOAD,2022-12-31 15:58:16,15.08849948,0.00029,53.2177,339.6375,23.375,336.7374,0.00022973,3.371e-05,0.0,0 STARLINK-3976,1 52673U 22053T   22365.66546404  .00003371  00000-0  22973-3 0  9998,2 52673  53.2177 339.6375 0002900  23.3750 336.7374 15.08849948 35318,6917.85,95.437,541.721,537.7090000000002,0.0
52673.0,STARLINK-3976,PAYLOAD,2023-01-01 04:41:22,15.08835274,0.0002956,53.2208,337.2587,25.2382,334.8754,-1.2991999999999998e-06,-3.09e-06,0.0,0 STARLINK-3976,1 52673U 22053T   23001.19539511 -.00000309  00000-0 -12992-5 0  9997,2 52673  53.2208 337.2587 0002956  25.2382 334.8754 15.08835274 34963,6917.895,95.438,541.805,537.715,0.0
52673.0,STARLINK-3976,PAYLOAD,2023-01-01 09:27:31,15.08833891,0.0002993,53.2201,336.3664,22.7712,337.3413,-1.3386000000000002e-06,-3.1e-06,0.0,0 STARLINK-3976,1 52673U 22053T   23001.39411586 -.00000310  00000-0 -13386-5 0  9990,2 52673  53.2201 336.3664 0002993  22.7712 337.3413 15.08833891 35427,6917.899,95.438,541.835,537.694,0.0
52673.0,STARLINK-3976,PAYLOAD,2023-01-01 15:49:04,15.088375400000002,0.000303,53.2201,335.177,24.8295,335.2842,-9.7561e-05,-1.841e-05,0.0,0 STARLINK-3976,1 52673U 22053T   23001.65907574 -.00001841  00000-0 -97561-4 0  9992,2 52673  53.2201 335.1770 0003030  24.8295 335.2842 15.08837540 35466,6917.888000000001,95.438,541.849,537.6569999999998,0.0
52673.0,STARLINK-3976,PAYLOAD,2023-01-02 09:18:17,15.08844298,0.0002873,53.2192,331.906,25.3542,334.7591,6.2587e-05,7.08e-06,0.0,0 STARLINK-3976,1 52673U 22053T   23002.38770807  .00000708  00000-0  62587-4 0  9999,2 52673  53.2192 331.9060 0002873  25.3542 334.7591 15.08844298 35144,6917.8669999999975,95.437,541.72,537.745,0.0
52673.0,STARLINK-3976,PAYLOAD,2023-01-02 23:36:47,15.08829118,0.000288,53.2192,329.2298,24.4162,335.6966,0.00010516,1.385e-05,0.0,0 STARLINK-3976,1 52673U 22053T   23002.98387878  .00001385  00000-0  10516-3 0  9993,2 52673  53.2192 329.2298 0002880  24.4162 335.6966 15.08829118 35233,6917.9140000000025,95.438,541.771,537.786,0.0
52673.0,STARLINK-3976,PAYLOAD,2023-01-03 13:55:15,15.08833054,0.0002931999999999,53.219,326.5532,22.6299,337.4822,0.00017231,2.454e-05,0.0,0 STARLINK-3976,1 52673U 22053T   23003.58004110  .00002454  00000-0  17231-3 0  9994,2 52673  53.2190 326.5532 0002932  22.6299 337.4822 15.08833054 35753,6917.901999999999,95.438,541.795,537.738,0.0
52673.0,STARLINK-3976,PAYLOAD,2023-01-04 01:02:57,15.08830403,0.0002876,53.2197,324.4734,20.179,339.9315,0.00012211,1.655e-05,0.0,0 STARLINK-3976,1 52673U 22053T   23004.04372360  .00001655  00000-0  12211-3 0  9996,2 52673  53.2197 324.4734 0002876  20.1790 339.9315 15.08830403 35396,6917.91,95.438,541.764,537.785,0.0
52673.0,STARLINK-3976,PAYLOAD,2023-01-04 07:24:29,15.08844487,0.0002893,53.2198,323.2833,22.2539,337.8579,0.00014763,2.062e-05,0.0,0 STARLINK-3976,1 52673U 22053T   23004.30867643  .00002062  00000-0  14763-3 0  9995,2 52673  53.2198 323.2833 0002893  22.2539 337.8579 15.08844487 35438,6917.8669999999975,95.437,541.7330000000002,537.73,0.0
52673.0,STARLINK-3976,PAYLOAD,2023-01-04 13:46:02,15.08846113,0.0002901999999999,53.2197,322.0942,22.507,337.6049,0.00013223,1.817e-05,0.0,0 STARLINK-3976,1 52673U 22053T   23004.57363610  .00001817  00000-0  13223-3 0  9996,2 52673  53.2197 322.0942 0002902  22.5070 337.6049 15.08846113 35909,6917.861999999999,95.437,541.734,537.719,0.0
52673.0,STARLINK-3976,PAYLOAD,2023-01-05 07:15:15,15.08857946,0.0002878,53.2191,318.8233,22.74,337.3719,0.00037496,5.687e-05,0.0,0 STARLINK-3976,1 52673U 22053T   23005.30226753  .00005687  00000-0  37496-3 0  9991,2 52673  53.2191 318.8233 0002878  22.7400 337.3719 15.08857946 35581,6917.826,95.436,541.681,537.7,0.0
52673.0,STARLINK-3976,PAYLOAD,2023-01-05 13:36:48,15.08861856,0.0003048,53.2181,317.6313,18.4163,341.6939,0.00034688,5.24e-05,0.0,0 STARLINK-3976,1 52673U 22053T   23005.56722378  .00005240  00000-0  34688-3 0  9998,2 52673  53.2181 317.6313 0003048  18.4163 341.6939 15.08861856 36054,6917.814,95.436,541.7869999999998,537.57,0.0
52673.0,STARLINK-3976,PAYLOAD,2023-01-06 18:13:47,15.08821866,0.0002664,53.2198,312.2812,10.0513,350.0532,-0.00015347,-2.729e-05,0.0,0 STARLINK-3976,1 52673U 22053T   23006.75957301 -.00002729  00000-0 -15347-3 0  9998,2 52673  53.2198 312.2812 0002664  10.0513 350.0532 15.08821866 35809,6917.936,95.439,541.644,537.9580000000002,0.0
52673.0,STARLINK-3976,PAYLOAD,2023-01-06 21:24:33,15.08831562,0.0002969,53.2194,311.6862,22.0188,338.0931,-0.00018831,-3.284e-05,0.0,0 STARLINK-3976,1 52673U 22053T   23006.89205134 -.00003284  00000-0 -18831-3 0  9991,2 52673  53.2194 311.6862 0002969  22.0188 338.0931 15.08831562 36255,6917.906,95.438,541.825,537.717,0.0
52673.0,STARLINK-3976,PAYLOAD,2023-01-06 22:59:56,15.08832764,0.0002968,53.2196,311.3891,22.5175,337.5947,-0.00017631,-3.093e-05,0.0,0 STARLINK-3976,1 52673U 22053T   23006.95829070 -.00003093  00000-0 -17631-3 0  9994,2 52673  53.2196 311.3891 0002968  22.5175 337.5947 15.08832764 35835,6917.903,95.438,541.821,537.714,0.0
52673.0,STARLINK-3976,PAYLOAD,2023-01-07 19:39:56,15.08838222,0.0002995,53.2193,307.5238,24.0297,336.0835,-6.1664e-05,-1.27e-05,0.0,0 STARLINK-3976,1 52673U 22053T   23007.81940590 -.00001270  00000-0 -61664-4 0  9992,2 52673  53.2193 307.5238 0002995  24.0297 336.0835 15.08838222 35965,6917.886,95.438,541.823,537.679,0.0
52673.0,STARLINK-3976,PAYLOAD,2023-01-08 02:01:30,15.08823588,0.0002846,53.2192,306.3344,22.8769,337.2349,-2.1687e-05,-6.34e-06,0.0,0 STARLINK-3976,1 52673U 22053T   23008.08437681 -.00000634  00000-0 -21687-4 0  9998,2 52673  53.2192 306.3344 0002846  22.8769 337.2349 15.08823588 36002,6917.931,95.439,541.764,537.827,0.0
52673.0,STARLINK-3976,PAYLOAD,2023-01-08 13:09:11,15.08827721,0.0003026,53.2193,304.2533,25.4841,334.63,0.00024077,3.544e-05,0.0,0 STARLINK-3976,1 52673U 22053T   23008.54805183  .00003544  00000-0  24077-3 0  9991,2 52673  53.2193 304.2533 0003026  25.4841 334.6300 15.08827721 36507,6917.9180000000015,95.438,541.876,537.69,0.0
52673.0,STARLINK-3976,PAYLOAD,2023-01-08 19:30:44,15.08831616,0.0003036,53.2191,303.0638,26.0524,334.0619999999999,0.0002105,3.063e-05,0.0,0 STARLINK-3976,1 52673U 22053T   23008.81301261  .00003063  00000-0  21050-3 0  9993,2 52673  53.2191 303.0638 0003036  26.0524 334.0620 15.08831616 36118,6917.906,95.438,541.871,537.6709999999998,0.0
52673.0,STARLINK-3976,PAYLOAD,2023-01-09 01:52:16,15.08835079,0.0003077,53.2192,301.8748,26.3209,333.7939,0.00022397,3.277e-05,0.0,0 STARLINK-3976,1 52673U 22053T   23009.07797197  .00003277  00000-0  22397-3 0  9991,2 52673  53.2192 301.8748 0003077  26.3209 333.7939 15.08835079 36582,6917.895,95.438,541.889,537.632,0.0
52673.0,STARLINK-3976,PAYLOAD,2023-01-10 01:43:03,15.08842117,0.000284,53.2193,297.4134,24.6063,335.5065,0.00019094,2.752e-05,0.0,0 STARLINK-3976,1 52673U 22053T   23010.07156502  .00002752  00000-0  19094-3 0  9999,2 52673  53.2193 297.4134 0002840  24.6063 335.5065 15.08842117 36309,6917.874,95.437,541.7040000000002,537.774,0.0
52673.0,STARLINK-3976,PAYLOAD,2023-01-10 23:58:27,15.08845388,0.0003046,53.2196,293.2499,30.312,329.8048,-2.2627e-05,-6.49e-06,0.0,0 STARLINK-3976,1 52673U 22053T   23010.99892855 -.00000649  00000-0 -22627-4 0  9990,2 52673  53.2196 293.2499 0003046  30.3120 329.8048 15.08845388 36442,6917.864000000001,95.437,541.836,537.622,0.0
52673.0,STARLINK-3976,PAYLOAD,2023-01-11 11:06:08,15.08855393,0.0002943,53.2197,291.1679,27.4199,332.6948,2.1422e-05,5.2e-07,0.0,0 STARLINK-3976,1 52673U 22053T   23011.46259755  .00000052  00000-0  21422-4 0  9997,2 52673  53.2197 291.1679 0002943  27.4199 332.6948 15.08855393 36514,6917.833000000001,95.437,541.734,537.6619999999998,0.0
52673.0,STARLINK-3976,PAYLOAD,2023-01-11 20:38:26,15.08862863,0.0002941,53.2196,289.3839,23.1102,337.0022,3.2075e-06,-2.38e-06,0.0,0 STARLINK-3976,1 52673U 22053T   23011.86003103 -.00000238  00000-0  32075-5 0  9999,2 52673  53.2196 289.3839 0002941  23.1102 337.0022 15.08862863 37002,6917.811,95.436,541.71,537.641,0.0
52673.0,STARLINK-3976,PAYLOAD,2023-01-12 01:24:35,15.08863552,0.0002892,53.2191,288.4939,19.4866,340.6236,0.00021957,3.21e-05,0.0,0 STARLINK-3976,1 52673U 22053T   23012.05874080  .00003210  00000-0  21957-3 0  9998,2 52673  53.2191 288.4939 0002892  19.4866 340.6236 15.08863552 36606,6917.808000000001,95.436,541.674,537.673,0.0
